*******************************************************************************
Ephemeris / WWW_USER Mon Mar 10 07:36:52 2025 Pasadena, USA      / Horizons    
*******************************************************************************
Target body name: Lemmon (C/2018 EF9)             {source: JPL#18}
Center body name: Earth (399)                     {source: DE441}
Center-site name: Mauna Kea
*******************************************************************************
Start time      : A.D. 2018-Aug-02 05:08:00.0000 UT      
Stop  time      : A.D. 2018-Aug-02 15:48:00.0000 UT      
Step-size       : 1 minutes
*******************************************************************************
Target pole/equ : undefined
Target radii    : undefined                                                    
Center geodetic : 204.5278, 19.8260847, 4.21024   {E-lon(deg),Lat(deg),Alt(km)}
Center cylindric: 204.5278, 6006.35451, 2151.0229 {E-lon(deg),Dxy(km),Dz(km)}
Center pole/equ : ITRF93                          {East-longitude positive}
Center radii    : 6378.137, 6378.137, 6356.752 km {Equator_a, b, pole_c}       
Target primary  : Sun
Vis. interferer : MOON (R_eq= 1737.400) km        {source: DE441}
Rel. light bend : Sun                             {source: DE441}
Rel. lght bnd GM: 1.3271E+11 km^3/s^2                                          
Small-body perts: Yes                             {source: SB441-N16}
Atmos refraction: NO (AIRLESS)
RA format       : HMS
Time format     : CAL 
Calendar mode   : Mixed Julian/Gregorian
RTS-only print  : NO       
EOP file        : eop.250307.p250603                                           
EOP coverage    : DATA-BASED 1962-JAN-20 TO 2025-MAR-07. PREDICTS-> 2025-JUN-02
Units conversion: 1 au= 149597870.700 km, c= 299792.458 km/s, 1 day= 86400.0 s 
Table cut-offs 1: Elevation (-90.0deg=NO ),Airmass (>38.000=NO), Daylight (YES)
Table cut-offs 2: Solar elongation (  0.0,180.0=NO ),Local Hour Angle( 0.0=NO )
Table cut-offs 3: RA/DEC angular rate (     0.0=NO )                           
*******************************************************************************
Initial IAU76/J2000 heliocentric ecliptic osculating elements (au, days, deg.):
  EPOCH=  2458226.5 ! 2018-Apr-18.0000000 (TDB)    RMSW= n.a.                  
   EC= .9975741722198472   QR= 1.55663257903246    TP= 2458261.6283815675      
   OM= 172.5780664128357   W= 72.61657512148747    IN= 84.69445280104227       
  Equivalent ICRF heliocentric cartesian coordinates (au, au/d):
   X=-1.091857230976521E+00  Y=-4.544188696153424E-01  Z= 1.120998862172552E+00
  VX= 1.630642470498751E-02 VY=-6.481787118028984E-03 VZ= 7.403953065693920E-03
Comet physical (GM= km^3/s^2; RAD= km):                                        
   GM= n.a.                RAD= n.a.                                           
   M1=  8.6      M2=  17.8     k1=  45.25  k2=  5.      PHCOF=  .030           
*******************************************************************************
 Date__(UT)__HR:MN     R.A._________(ICRF)_________DEC
******************************************************
$$SOE
 2018-Aug-02 07:13     21 19 54.377324 +81 31 02.72756
 2018-Aug-02 07:14     21 19 54.159366 +81 31 01.74835
 2018-Aug-02 07:15     21 19 53.941386 +81 31 00.76905
 2018-Aug-02 07:16     21 19 53.723383 +81 30 59.78968
 2018-Aug-02 07:17     21 19 53.505357 +81 30 58.81024
 2018-Aug-02 07:18     21 19 53.287309 +81 30 57.83071
 2018-Aug-02 07:19     21 19 53.069238 +81 30 56.85111
 2018-Aug-02 07:20     21 19 52.851144 +81 30 55.87143
 2018-Aug-02 07:21     21 19 52.633029 +81 30 54.89167
 2018-Aug-02 07:22     21 19 52.414891 +81 30 53.91184
 2018-Aug-02 07:23     21 19 52.196730 +81 30 52.93192
 2018-Aug-02 07:24     21 19 51.978548 +81 30 51.95192
 2018-Aug-02 07:25     21 19 51.760344 +81 30 50.97185
 2018-Aug-02 07:26     21 19 51.542119 +81 30 49.99170
 2018-Aug-02 07:27     21 19 51.323871 +81 30 49.01146
 2018-Aug-02 07:28     21 19 51.105602 +81 30 48.03114
 2018-Aug-02 07:29     21 19 50.887312 +81 30 47.05075
 2018-Aug-02 07:30     21 19 50.669000 +81 30 46.07027
 2018-Aug-02 07:31     21 19 50.450668 +81 30 45.08971
 2018-Aug-02 07:32     21 19 50.232314 +81 30 44.10907
 2018-Aug-02 07:33     21 19 50.013939 +81 30 43.12834
 2018-Aug-02 07:34     21 19 49.795543 +81 30 42.14753
 2018-Aug-02 07:35     21 19 49.577127 +81 30 41.16665
 2018-Aug-02 07:36     21 19 49.358690 +81 30 40.18567
 2018-Aug-02 07:37     21 19 49.140232 +81 30 39.20462
 2018-Aug-02 07:38     21 19 48.921754 +81 30 38.22347
 2018-Aug-02 07:39     21 19 48.703256 +81 30 37.24225
 2018-Aug-02 07:40     21 19 48.484738 +81 30 36.26094
 2018-Aug-02 07:41     21 19 48.266200 +81 30 35.27955
 2018-Aug-02 07:42     21 19 48.047642 +81 30 34.29807
 2018-Aug-02 07:43     21 19 47.829064 +81 30 33.31650
 2018-Aug-02 07:44     21 19 47.610466 +81 30 32.33485
 2018-Aug-02 07:45     21 19 47.391849 +81 30 31.35312
 2018-Aug-02 07:46     21 19 47.173213 +81 30 30.37129
 2018-Aug-02 07:47     21 19 46.954557 +81 30 29.38938
 2018-Aug-02 07:48     21 19 46.735882 +81 30 28.40739
 2018-Aug-02 07:49     21 19 46.517189 +81 30 27.42530
 2018-Aug-02 07:50     21 19 46.298476 +81 30 26.44313
 2018-Aug-02 07:51     21 19 46.079745 +81 30 25.46087
 2018-Aug-02 07:52     21 19 45.860995 +81 30 24.47852
 2018-Aug-02 07:53     21 19 45.642226 +81 30 23.49609
 2018-Aug-02 07:54     21 19 45.423439 +81 30 22.51356
 2018-Aug-02 07:55     21 19 45.204634 +81 30 21.53095
 2018-Aug-02 07:56     21 19 44.985811 +81 30 20.54825
 2018-Aug-02 07:57     21 19 44.766970 +81 30 19.56545
 2018-Aug-02 07:58     21 19 44.548111 +81 30 18.58257
 2018-Aug-02 07:59     21 19 44.329235 +81 30 17.59960
 2018-Aug-02 08:00     21 19 44.110340 +81 30 16.61653
 2018-Aug-02 08:01     21 19 43.891429 +81 30 15.63338
 2018-Aug-02 08:02     21 19 43.672500 +81 30 14.65013
 2018-Aug-02 08:03     21 19 43.453554 +81 30 13.66680
 2018-Aug-02 08:04     21 19 43.234591 +81 30 12.68337
 2018-Aug-02 08:05     21 19 43.015611 +81 30 11.69985
 2018-Aug-02 08:06     21 19 42.796614 +81 30 10.71623
 2018-Aug-02 08:07     21 19 42.577600 +81 30 09.73253
 2018-Aug-02 08:08     21 19 42.358571 +81 30 08.74873
 2018-Aug-02 08:09     21 19 42.139524 +81 30 07.76484
 2018-Aug-02 08:10     21 19 41.920462 +81 30 06.78086
 2018-Aug-02 08:11     21 19 41.701384 +81 30 05.79678
 2018-Aug-02 08:12     21 19 41.482289 +81 30 04.81261
 2018-Aug-02 08:13     21 19 41.263179 +81 30 03.82834
 2018-Aug-02 08:14     21 19 41.044053 +81 30 02.84398
 2018-Aug-02 08:15     21 19 40.824912 +81 30 01.85952
 2018-Aug-02 08:16     21 19 40.605755 +81 30 00.87497
 2018-Aug-02 08:17     21 19 40.386583 +81 29 59.89033
 2018-Aug-02 08:18     21 19 40.167397 +81 29 58.90559
 2018-Aug-02 08:19  m  21 19 39.948195 +81 29 57.92075
 2018-Aug-02 08:20  m  21 19 39.728978 +81 29 56.93582
 2018-Aug-02 08:21  m  21 19 39.509747 +81 29 55.95079
 2018-Aug-02 08:22  m  21 19 39.290501 +81 29 54.96566
 2018-Aug-02 08:23  m  21 19 39.071241 +81 29 53.98044
 2018-Aug-02 08:24  m  21 19 38.851967 +81 29 52.99512
 2018-Aug-02 08:25  m  21 19 38.632678 +81 29 52.00970
 2018-Aug-02 08:26  m  21 19 38.413376 +81 29 51.02418
 2018-Aug-02 08:27  m  21 19 38.194060 +81 29 50.03857
 2018-Aug-02 08:28  m  21 19 37.974730 +81 29 49.05286
 2018-Aug-02 08:29  m  21 19 37.755387 +81 29 48.06705
 2018-Aug-02 08:30  m  21 19 37.536031 +81 29 47.08114
 2018-Aug-02 08:31  m  21 19 37.316661 +81 29 46.09514
 2018-Aug-02 08:32  m  21 19 37.097279 +81 29 45.10903
 2018-Aug-02 08:33  m  21 19 36.877883 +81 29 44.12283
 2018-Aug-02 08:34  m  21 19 36.658475 +81 29 43.13652
 2018-Aug-02 08:35  m  21 19 36.439054 +81 29 42.15012
 2018-Aug-02 08:36  m  21 19 36.219621 +81 29 41.16361
 2018-Aug-02 08:37  m  21 19 36.000176 +81 29 40.17701
 2018-Aug-02 08:38  m  21 19 35.780718 +81 29 39.19030
 2018-Aug-02 08:39  m  21 19 35.561249 +81 29 38.20350
 2018-Aug-02 08:40  m  21 19 35.341767 +81 29 37.21659
 2018-Aug-02 08:41  m  21 19 35.122274 +81 29 36.22958
 2018-Aug-02 08:42  m  21 19 34.902770 +81 29 35.24247
 2018-Aug-02 08:43  m  21 19 34.683254 +81 29 34.25526
 2018-Aug-02 08:44  m  21 19 34.463727 +81 29 33.26795
 2018-Aug-02 08:45  m  21 19 34.244189 +81 29 32.28053
 2018-Aug-02 08:46  m  21 19 34.024640 +81 29 31.29301
 2018-Aug-02 08:47  m  21 19 33.805081 +81 29 30.30539
 2018-Aug-02 08:48  m  21 19 33.585511 +81 29 29.31767
 2018-Aug-02 08:49  m  21 19 33.365930 +81 29 28.32984
 2018-Aug-02 08:50  m  21 19 33.146340 +81 29 27.34191
 2018-Aug-02 08:51  m  21 19 32.926739 +81 29 26.35388
 2018-Aug-02 08:52  m  21 19 32.707128 +81 29 25.36574
 2018-Aug-02 08:53  m  21 19 32.487508 +81 29 24.37750
 2018-Aug-02 08:54  m  21 19 32.267878 +81 29 23.38916
 2018-Aug-02 08:55  m  21 19 32.048238 +81 29 22.40071
 2018-Aug-02 08:56  m  21 19 31.828589 +81 29 21.41215
 2018-Aug-02 08:57  m  21 19 31.608931 +81 29 20.42349
 2018-Aug-02 08:58  m  21 19 31.389265 +81 29 19.43473
 2018-Aug-02 08:59  m  21 19 31.169589 +81 29 18.44586
 2018-Aug-02 09:00  m  21 19 30.949905 +81 29 17.45689
 2018-Aug-02 09:01  m  21 19 30.730212 +81 29 16.46781
 2018-Aug-02 09:02  m  21 19 30.510511 +81 29 15.47862
 2018-Aug-02 09:03  m  21 19 30.290802 +81 29 14.48933
 2018-Aug-02 09:04  m  21 19 30.071084 +81 29 13.49993
 2018-Aug-02 09:05  m  21 19 29.851359 +81 29 12.51043
 2018-Aug-02 09:06  m  21 19 29.631627 +81 29 11.52082
 2018-Aug-02 09:07  m  21 19 29.411886 +81 29 10.53110
 2018-Aug-02 09:08  m  21 19 29.192139 +81 29 09.54127
 2018-Aug-02 09:09  m  21 19 28.972384 +81 29 08.55134
 2018-Aug-02 09:10  m  21 19 28.752623 +81 29 07.56130
 2018-Aug-02 09:11  m  21 19 28.532854 +81 29 06.57116
 2018-Aug-02 09:12  m  21 19 28.313079 +81 29 05.58090
 2018-Aug-02 09:13  m  21 19 28.093297 +81 29 04.59054
 2018-Aug-02 09:14  m  21 19 27.873509 +81 29 03.60007
 2018-Aug-02 09:15  m  21 19 27.653715 +81 29 02.60949
 2018-Aug-02 09:16  m  21 19 27.433915 +81 29 01.61880
 2018-Aug-02 09:17  m  21 19 27.214109 +81 29 00.62801
